STARLINK-2652
1 28451C 21040Z   21325.12186101  .00000772  00000-0  51705-4 0  3253
2 28451  53.0568  27.6738 0001433  56.6014 193.4100 15.06408594    18
